$$SOE
2460161.500000000, A.D. 2023-Aug-05 00:00:00.0000, -1.630429404886380E+08, 3.981005748302208E+08, 6.796367606591970E+06,
2460168.500000000, A.D. 2023-Aug-12 00:00:00.0000, -1.731942024720074E+08, 3.948874798926052E+08, 6.377293360863745E+06,
2460175.500000000, A.D. 2023-Aug-19 00:00:00.0000, -1.832406560802968E+08, 3.914353410022917E+08, 5.954359354480654E+06,
2460182.500000000, A.D. 2023-Aug-26 00:00:00.0000, -1.931769890254392E+08, 3.877478816207331E+08, 5.527846642323613E+06,
2460189.500000000, A.D. 2023-Sep-02 00:00:00.0000, -2.029980300126707E+08, 3.838289195383176E+08, 5.098034614212036E+06,
2460196.500000000, A.D. 2023-Sep-09 00:00:00.0000, -2.126987487828976E+08, 3.796823613822946E+08, 4.665200821498543E+06,
2460203.500000000, A.D. 2023-Sep-16 00:00:00.0000, -2.222742557886016E+08, 3.753121970980527E+08, 4.229620782414705E+06,
2460210.500000000, A.D. 2023-Sep-23 00:00:00.0000, -2.317198010991005E+08, 3.707224946935721E+08, 3.791567751230597E+06,
2460217.500000000, A.D. 2023-Sep-30 00:00:00.0000, -2.410307728874283E+08, 3.659173964405767E+08, 3.351312579478741E+06,
2460224.500000000, A.D. 2023-Oct-07 00:00:00.0000, -2.502026978649446E+08, 3.609011159933601E+08, 2.909123840431109E+06,
2460231.500000000, A.D. 2023-Oct-14 00:00:00.0000, -2.592312426329195E+08, 3.556779331137761E+08, 2.465267850502297E+06,
2460238.500000000, A.D. 2023-Oct-21 00:00:00.0000, -2.681122127323844E+08, 3.502521876024914E+08, 2.020008422599971E+06,
2460245.500000000, A.D. 2023-Oct-28 00:00:00.0000, -2.768415508299984E+08, 3.446282746970540E+08, 1.573606666643411E+06,
2460252.500000000, A.D. 2023-Nov-04 00:00:00.0000, -2.854153353011009E+08, 3.388106411686956E+08, 1.126320888627619E+06,
2460259.500000000, A.D. 2023-Nov-11 00:00:00.0000, -2.938297790414407E+08, 3.328037815181127E+08, 6.784065227753371E+05,
2460266.500000000, A.D. 2023-Nov-18 00:00:00.0000, -3.020812282967657E+08, 3.266122342049773E+08, 2.301160712776333E+05,
2460273.500000000, A.D. 2023-Nov-25 00:00:00.0000, -3.101661614453372E+08, 3.202405779323637E+08, -2.183009533524960E+05,
2460280.500000000, A.D. 2023-Dec-02 00:00:00.0000, -3.180811877120095E+08, 3.136934279725022E+08, -6.665980869322270E+05,
2460287.500000000, A.D. 2023-Dec-09 00:00:00.0000, -3.258230457424151E+08, 3.069754324711077E+08, -1.114531985283017E+06,
2460294.500000000, A.D. 2023-Dec-16 00:00:00.0000, -3.333886017567682E+08, 3.000912687379417E+08, -1.561862534318522E+06,
2460301.500000000, A.D. 2023-Dec-23 00:00:00.0000, -3.407748469434142E+08, 2.930456402063135E+08, -2.008352974492490E+06,
2460308.500000000, A.D. 2023-Dec-30 00:00:00.0000, -3.479788954426023E+08, 2.858432751078441E+08, -2.453769831401691E+06,
2460315.500000000, A.D. 2024-Jan-06 00:00:00.0000, -3.549979847028381E+08, 2.784889245018070E+08, -2.897882683702901E+06,
2460322.500000000, A.D. 2024-Jan-13 00:00:00.0000, -3.618294750423672E+08, 2.709873578516789E+08, -3.340464207644865E+06,
2460329.500000000, A.D. 2024-Jan-20 00:00:00.0000, -3.684708471961583E+08, 2.633433592292100E+08, -3.781290358715519E+06,
2460336.500000000, A.D. 2024-Jan-27 00:00:00.0000, -3.749196998836873E+08, 2.555617247947907E+08, -4.220140451697633E+06,
2460343.500000000, A.D. 2024-Feb-03 00:00:00.0000, -3.811737478311893E+08, 2.476472606034660E+08, -4.656797178063318E+06,
2460350.500000000, A.D. 2024-Feb-10 00:00:00.0000, -3.872308199743705E+08, 2.396047804421584E+08, -5.091046610388920E+06,
2460357.500000000, A.D. 2024-Feb-17 00:00:00.0000, -3.930888577059181E+08, 2.314391037016346E+08, -5.522678206201255E+06,
2460364.500000000, A.D. 2024-Feb-24 00:00:00.0000, -3.987459131350663E+08, 2.231550532932885E+08, -5.951484813654765E+06,
2460371.500000000, A.D. 2024-Mar-02 00:00:00.0000, -4.042001473332276E+08, 2.147574535734139E+08, -6.377262684667632E+06,
2460378.500000000, A.D. 2024-Mar-09 00:00:00.0000, -4.094498284304485E+08, 2.062511282073771E+08, -6.799811513638690E+06,
2460385.500000000, A.D. 2024-Mar-16 00:00:00.0000, -4.144933291710534E+08, 1.976408981664173E+08, -7.218934522100367E+06,
2460392.500000000, A.D. 2024-Mar-23 00:00:00.0000, -4.193291240358583E+08, 1.889315809617768E+08, -7.634438489394799E+06,
2460399.500000000, A.D. 2024-Mar-30 00:00:00.0000, -4.239557881767467E+08, 1.801279910856149E+08, -8.046133526338369E+06,
2460406.500000000, A.D. 2024-Apr-06 00:00:00.0000, -4.283719979122172E+08, 1.712349382890885E+08, -8.453832890991695E+06,
2460413.500000000, A.D. 2024-Apr-13 00:00:00.0000, -4.325765292339122E+08, 1.622572245318960E+08, -8.857353103948824E+06,
2460420.500000000, A.D. 2024-Apr-20 00:00:00.0000, -4.365682552765511E+08, 1.531996422752285E+08, -9.256514056976043E+06,
2460427.500000000, A.D. 2024-Apr-27 00:00:00.0000, -4.403461442712368E+08, 1.440669735524209E+08, -9.651139021992438E+06,
2460434.500000000, A.D. 2024-May-04 00:00:00.0000, -4.439092578970581E+08, 1.348639891112265E+08, -1.004105462621263E+07,
2460441.500000000, A.D. 2024-May-11 00:00:00.0000, -4.472567497940673E+08, 1.255954475232065E+08, -1.042609082369324E+07,
2460448.500000000, A.D. 2024-May-18 00:00:00.0000, -4.503878641566348E+08, 1.162660942787130E+08, -1.080608086899534E+07,
2460455.500000000, A.D. 2024-May-25 00:00:00.0000, -4.533019343834859E+08, 1.068806608571277E+08, -1.118086129574113E+07,
2460462.500000000, A.D. 2024-Jun-01 00:00:00.0000, -4.559983817256155E+08, 9.744386371181010E+07, -1.155027191015014E+07,
2460469.500000000, A.D. 2024-Jun-08 00:00:00.0000, -4.584767136866425E+08, 8.796040314378025E+07, -1.191415582389178E+07,
2460476.500000000, A.D. 2024-Jun-15 00:00:00.0000, -4.607365217767258E+08, 7.843496260616478E+07, -1.227235951817812E+07,
2460483.500000000, A.D. 2024-Jun-22 00:00:00.0000, -4.627774796259076E+08, 6.887220961117867E+07, -1.262473275070248E+07,
2460490.500000000, A.D. 2024-Jun-29 00:00:00.0000, -4.645993435803828E+08, 5.927679641543858E+07, -1.297112825964834E+07,
2460497.500000000, A.D. 2024-Jul-06 00:00:00.0000, -4.662019531390637E+08, 4.965335801047492E+07, -1.331140170940834E+07,
2460504.500000000, A.D. 2024-Jul-13 00:00:00.0000, -4.675852292808959E+08, 4.000651024090776E+07, -1.364541182580387E+07,
2460511.500000000, A.D. 2024-Jul-20 00:00:00.0000, -4.687491726675966E+08, 3.034084919571248E+07, -1.397302044464967E+07,
2460518.500000000, A.D. 2024-Jul-27 00:00:00.0000, -4.696938623788387E+08, 2.066095090993378E+07, -1.429409249214324E+07,
2460525.500000000, A.D. 2024-Aug-03 00:00:00.0000, -4.704194549079565E+08, 1.097137100021200E+07, -1.460849595303175E+07,
2460532.500000000, A.D. 2024-Aug-10 00:00:00.0000, -4.709261832517192E+08, 1.276644228426607E+06, -1.491610184222252E+07,
2460539.500000000, A.D. 2024-Aug-17 00:00:00.0000, -4.712143560449964E+08, -8.418715986748882E+06, -1.521678418240014E+07,
2460546.500000000, A.D. 2024-Aug-24 00:00:00.0000, -4.712843567107530E+08, -1.811021813558038E+07, -1.551041999209308E+07,
2460553.500000000, A.D. 2024-Aug-31 00:00:00.0000, -4.711366425092140E+08, -2.779339332531239E+07, -1.579688930007928E+07,
2460560.500000000, A.D. 2024-Sep-07 00:00:00.0000, -4.707717431215046E+08, -3.746379600736673E+07, -1.607607520978144E+07,
2460567.500000000, A.D. 2024-Sep-14 00:00:00.0000, -4.701902586837483E+08, -4.711700373019588E+07, -1.634786394059255E+07,
2460574.500000000, A.D. 2024-Sep-21 00:00:00.0000, -4.693928593014289E+08, -5.674861550716940E+07, -1.661214462680980E+07,
2460581.500000000, A.D. 2024-Sep-28 00:00:00.0000, -4.683802865329905E+08, -6.635425202901183E+07, -1.686880909373445E+07,
2460588.500000000, A.D. 2024-Oct-05 00:00:00.0000, -4.671533531741236E+08, -7.592955771990085E+07, -1.711775194768149E+07,
2460595.500000000, A.D. 2024-Oct-12 00:00:00.0000, -4.657129417018015E+08, -8.547020165754762E+07, -1.735887070314984E+07,
2460602.500000000, A.D. 2024-Oct-19 00:00:00.0000, -4.640600031266061E+08, -9.497187763002314E+07, -1.759206580855516E+07,
2460609.500000000, A.D. 2024-Oct-26 00:00:00.0000, -4.621955562848844E+08, -1.044303041334493E+08, -1.781724063316164E+07,
2460616.500000000, A.D. 2024-Nov-02 00:00:00.0000, -4.601206873134387E+08, -1.138412244610604E+08, -1.803430145108391E+07,
2460623.500000000, A.D. 2024-Nov-09 00:00:00.0000, -4.578365492098843E+08, -1.232004068644655E+08, -1.824315742955420E+07,
2460630.500000000, A.D. 2024-Nov-16 00:00:00.0000, -4.553443614520726E+08, -1.325036447882952E+08, -1.844372062376437E+07,
2460637.500000000, A.D. 2024-Nov-23 00:00:00.0000, -4.526454096288503E+08, -1.417467572296725E+08, -1.863590598660418E+07,
2460644.500000000, A.D. 2024-Nov-30 00:00:00.0000, -4.497410448730659E+08, -1.509255892666988E+08, -1.881963141581780E+07,
2460651.500000000, A.D. 2024-Dec-07 00:00:00.0000, -4.466326826765034E+08, -1.600360123367967E+08, -1.899481784257333E+07,
2460658.500000000, A.D. 2024-Dec-14 00:00:00.0000, -4.433218017741786E+08, -1.690739230424322E+08, -1.916138919811375E+07,
2460665.500000000, A.D. 2024-Dec-21 00:00:00.0000, -4.398099454153753E+08, -1.780352417270278E+08, -1.931927214714345E+07,
2460672.500000000, A.D. 2024-Dec-28 00:00:00.0000, -4.360987230492015E+08, -1.869159137909281E+08, -1.946839601141231E+07,
2460679.500000000, A.D. 2025-Jan-04 00:00:00.0000, -4.321898098279693E+08, -1.957119113726494E+08, -1.960869292740124E+07,
2460686.500000000, A.D. 2025-Jan-11 00:00:00.0000, -4.280849457483501E+08, -2.044192337361536E+08, -1.974009793501209E+07,
2460693.500000000, A.D. 2025-Jan-18 00:00:00.0000, -4.237859353451315E+08, -2.130339072843715E+08, -1.986254898789385E+07,
2460700.500000000, A.D. 2025-Jan-25 00:00:00.0000, -4.192946476928064E+08, -2.215519856758354E+08, -1.997598694635873E+07,
2460707.500000000, A.D. 2025-Feb-01 00:00:00.0000, -4.146130165250499E+08, -2.299695500768089E+08, -2.008035557261632E+07,
2460714.500000000, A.D. 2025-Feb-08 00:00:00.0000, -4.097430404132754E+08, -2.382827095310658E+08, -2.017560153190795E+07,
2460721.500000000, A.D. 2025-Feb-15 00:00:00.0000, -4.046867829747494E+08, -2.464876014689738E+08, -2.026167440362872E+07,
$$EOE